[{"OBJECT_NAME":"TIANMU-1 08","OBJECT_ID":"2023-101B","EPOCH":"2026-03-07T00:03:25.475616","MEAN_MOTION":15.29204229,"ECCENTRICITY":0.00063808,"INCLINATION":97.2717,"RA_OF_ASC_NODE":118.7901,"ARG_OF_PERICENTER":134.2174,"MEAN_ANOMALY":225.9592,"EPHEMERIS_TYPE":0,"CLASSIFICATION_TYPE":"U","NORAD_CAT_ID":57400,"ELEMENT_SET_NO":999,"REV_AT_EPOCH":14602,"BSTAR":1.4774513e-5,"MEAN_MOTION_DOT":3.46e-6,"MEAN_MOTION_DDOT":0},{"OBJECT_NAME":"STARLINK-36145","OBJECT_ID":"2025-288AA","EPOCH":"2026-03-09T06:48:23.435712","MEAN_MOTION":15.27593375,"ECCENTRICITY":0.00016823,"INCLINATION":43.0036,"RA_OF_ASC_NODE":25.8836,"ARG_OF_PERICENTER":255.2331,"MEAN_ANOMALY":104.8334,"EPHEMERIS_TYPE":0,"CLASSIFICATION_TYPE":"U","NORAD_CAT_ID":66983,"ELEMENT_SET_NO":999,"REV_AT_EPOCH":1522,"BSTAR":0.0010532077,"MEAN_MOTION_DOT":0.00028845,"MEAN_MOTION_DDOT":0}]
